[
  {
    "name": "ONEWEB-0159",
    "noradId": "48062",
    "line1": "1 48062U 21025W   26186.85445576 -.00000329  00000+0 -93683-3 0  9994",
    "line2": "2 48062  87.8982 316.5002 0002162 101.1850 258.9522 13.13469535256059"
  },
  {
    "name": "ONEWEB-0164",
    "noradId": "48063",
    "line1": "1 48063U 21025X   26186.91201083 -.00000091  00000+0 -28382-3 0  9995",
    "line2": "2 48063  87.8983 316.4949 0001819 100.2843 259.8491 13.13468230256045"
  },
  {
    "name": "ONEWEB-0167",
    "noradId": "48064",
    "line1": "1 48064U 21025Y   26186.86377534 -.00000096  00000+0 -29860-3 0  9992",
    "line2": "2 48064  87.8969 316.5127 0002345 113.5190 246.6186 13.13469744256020"
  },
  {
    "name": "ONEWEB-0166",
    "noradId": "48065",
    "line1": "1 48065U 21025Z   26186.88662858  .00000351  00000+0  92734-3 0  9993",
    "line2": "2 48065  87.8980 316.4814 0001926  97.6558 262.4790 13.13469735256106"
  },
  {
    "name": "ONEWEB-0151",
    "noradId": "48066",
    "line1": "1 48066U 21025AA  26186.88831314  .00000380  00000+0  10056-2 0  9997",
    "line2": "2 48066  87.8975 316.4966 0001922 102.7017 257.4327 13.13469093256043"
  },
  {
    "name": "ONEWEB-0170",
    "noradId": "48067",
    "line1": "1 48067U 21025AB  26186.82059372  .00000268  00000+0  69774-3 0  9995",
    "line2": "2 48067  87.8978 316.5122 0001558 114.0220 246.1072 13.13468695255991"
  },
  {
    "name": "ONEWEB-0168",
    "noradId": "48068",
    "line1": "1 48068U 21025AC  26186.88154082  .00000340  00000+0  89707-3 0  9995",
    "line2": "2 48068  87.8980 316.5007 0001932 100.0631 260.0717 13.13469396256018"
  },
  {
    "name": "ONEWEB-0173",
    "noradId": "48069",
    "line1": "1 48069U 21025AD  26186.79690113  .00000166  00000+0  41921-3 0  9998",
    "line2": "2 48069  87.8973 316.5182 0002244 103.8207 256.3172 13.13470098256241"
  },
  {
    "name": "ONEWEB-0171",
    "noradId": "48070",
    "line1": "1 48070U 21025AE  26186.91031697 -.00000076  00000+0 -24428-3 0  9995",
    "line2": "2 48070  87.8972 316.5032 0001887 102.2160 257.9181 13.13468338256071"
  },
  {
    "name": "ONEWEB-0172",
    "noradId": "48071",
    "line1": "1 48071U 21025AF  26186.89001117  .00000341  00000+0  89923-3 0  9991",
    "line2": "2 48071  87.8980 316.4982 0002017 103.9945 256.1408 13.13469765256965"
  },
  {
    "name": "ONEWEB-0174",
    "noradId": "48072",
    "line1": "1 48072U 21025AG  26186.87138777  .00000167  00000+0  42151-3 0  9991",
    "line2": "2 48072  87.8980 316.5009 0001992  95.5277 264.6080 13.13469627256284"
  },
  {
    "name": "ONEWEB-0175",
    "noradId": "48073",
    "line1": "1 48073U 21025AH  26186.82567850  .00000160  00000+0  40413-3 0  9997",
    "line2": "2 48073  87.8984 316.4953 0001871 109.7975 250.3356 13.13468898255933"
  },
  {
    "name": "ONEWEB-0177",
    "noradId": "48074",
    "line1": "1 48074U 21025AJ  26186.91370706 -.00000150  00000+0 -44530-3 0  9995",
    "line2": "2 48074  87.8980 316.4957 0002108  96.5998 263.5371 13.13468726256132"
  },
  {
    "name": "ONEWEB-0178",
    "noradId": "48075",
    "line1": "1 48075U 21025AK  26186.85629301 -.00000281  00000+0 -80393-3 0  9999",
    "line2": "2 48075  87.8968 316.5177 0002047 106.0688 254.0667 13.13470400256178"
  },
  {
    "name": "ONEWEB-0108",
    "noradId": "48076",
    "line1": "1 48076U 21025AL  26186.81552396  .00000310  00000+0  81364-3 0  9995",
    "line2": "2 48076  87.8983 316.5073 0001765  94.2574 265.8757 13.13469262256094"
  },
  {
    "name": "ONEWEB-0169",
    "noradId": "48077",
    "line1": "1 48077U 21025AM  26186.84768226 -.00000260  00000+0 -74639-3 0  9993",
    "line2": "2 48077  87.8974 316.5076 0001968  96.3988 263.7365 13.13468958254759"
  }
]