{"fetched_at":"2026-07-06T18:35:14.557Z","source":"https://celestrak.org/NORAD/elements/gp.php?GROUP=oneweb&FORMAT=JSON","constellation":"oneweb","records":[{"OBJECT_NAME":"ONEWEB-0159","OBJECT_ID":"2021-025W","EPOCH":"2026-07-05T20:30:24.977664","CLASSIFICATION_TYPE":"U","MEAN_MOTION":13.13469535,"ECCENTRICITY":0.00021622,"INCLINATION":87.8982,"RA_OF_ASC_NODE":316.5002,"ARG_OF_PERICENTER":101.185,"MEAN_ANOMALY":258.9522,"EPHEMERIS_TYPE":0,"NORAD_CAT_ID":48062,"ELEMENT_SET_NO":999,"REV_AT_EPOCH":25605,"BSTAR":-0.00093682655,"MEAN_MOTION_DOT":-0.00000329,"MEAN_MOTION_DDOT":0},{"OBJECT_NAME":"ONEWEB-0164","OBJECT_ID":"2021-025X","EPOCH":"2026-07-05T21:53:17.735712","CLASSIFICATION_TYPE":"U","MEAN_MOTION":13.1346823,"ECCENTRICITY":0.00018194,"INCLINATION":87.8983,"RA_OF_ASC_NODE":316.4949,"ARG_OF_PERICENTER":100.2843,"MEAN_ANOMALY":259.8491,"EPHEMERIS_TYPE":0,"NORAD_CAT_ID":48063,"ELEMENT_SET_NO":999,"REV_AT_EPOCH":25604,"BSTAR":-0.00028382384,"MEAN_MOTION_DOT":-9.1e-7,"MEAN_MOTION_DDOT":0},{"OBJECT_NAME":"ONEWEB-0167","OBJECT_ID":"2021-025Y","EPOCH":"2026-07-05T20:43:50.189376","CLASSIFICATION_TYPE":"U","MEAN_MOTION":13.13469744,"ECCENTRICITY":0.00023453,"INCLINATION":87.8969,"RA_OF_ASC_NODE":316.5127,"ARG_OF_PERICENTER":113.519,"MEAN_ANOMALY":246.6186,"EPHEMERIS_TYPE":0,"NORAD_CAT_ID":48064,"ELEMENT_SET_NO":999,"REV_AT_EPOCH":25602,"BSTAR":-0.00029859547,"MEAN_MOTION_DOT":-9.6e-7,"MEAN_MOTION_DDOT":0},{"OBJECT_NAME":"ONEWEB-0166","OBJECT_ID":"2021-025Z","EPOCH":"2026-07-05T21:16:44.709312","CLASSIFICATION_TYPE":"U","MEAN_MOTION":13.13469735,"ECCENTRICITY":0.00019262,"INCLINATION":87.898,"RA_OF_ASC_NODE":316.4814,"ARG_OF_PERICENTER":97.6558,"MEAN_ANOMALY":262.479,"EPHEMERIS_TYPE":0,"NORAD_CAT_ID":48065,"ELEMENT_SET_NO":999,"REV_AT_EPOCH":25610,"BSTAR":0.0009273407,"MEAN_MOTION_DOT":0.00000351,"MEAN_MOTION_DDOT":0},{"OBJECT_NAME":"ONEWEB-0151","OBJECT_ID":"2021-025AA","EPOCH":"2026-07-05T21:19:10.255296","CLASSIFICATION_TYPE":"U","MEAN_MOTION":13.13469093,"ECCENTRICITY":0.00019226,"INCLINATION":87.8975,"RA_OF_ASC_NODE":316.4966,"ARG_OF_PERICENTER":102.7017,"MEAN_ANOMALY":257.4327,"EPHEMERIS_TYPE":0,"NORAD_CAT_ID":48066,"ELEMENT_SET_NO":999,"REV_AT_EPOCH":25604,"BSTAR":0.00100555,"MEAN_MOTION_DOT":0.0000038,"MEAN_MOTION_DDOT":0},{"OBJECT_NAME":"ONEWEB-0170","OBJECT_ID":"2021-025AB","EPOCH":"2026-07-05T19:41:39.297408","CLASSIFICATION_TYPE":"U","MEAN_MOTION":13.13468695,"ECCENTRICITY":0.00015583,"INCLINATION":87.8978,"RA_OF_ASC_NODE":316.5122,"ARG_OF_PERICENTER":114.022,"MEAN_ANOMALY":246.1072,"EPHEMERIS_TYPE":0,"NORAD_CAT_ID":48067,"ELEMENT_SET_NO":999,"REV_AT_EPOCH":25599,"BSTAR":0.0006977365,"MEAN_MOTION_DOT":0.00000268,"MEAN_MOTION_DDOT":0},{"OBJECT_NAME":"ONEWEB-0168","OBJECT_ID":"2021-025AC","EPOCH":"2026-07-05T21:09:25.126848","CLASSIFICATION_TYPE":"U","MEAN_MOTION":13.13469396,"ECCENTRICITY":0.00019321,"INCLINATION":87.898,"RA_OF_ASC_NODE":316.5007,"ARG_OF_PERICENTER":100.0631,"MEAN_ANOMALY":260.0717,"EPHEMERIS_TYPE":0,"NORAD_CAT_ID":48068,"ELEMENT_SET_NO":999,"REV_AT_EPOCH":25601,"BSTAR":0.00089706639,"MEAN_MOTION_DOT":0.0000034,"MEAN_MOTION_DDOT":0},{"OBJECT_NAME":"ONEWEB-0173","OBJECT_ID":"2021-025AD","EPOCH":"2026-07-05T19:07:32.257632","CLASSIFICATION_TYPE":"U","MEAN_MOTION":13.13470098,"ECCENTRICITY":0.00022441,"INCLINATION":87.8973,"RA_OF_ASC_NODE":316.5182,"ARG_OF_PERICENTER":103.8207,"MEAN_ANOMALY":256.3172,"EPHEMERIS_TYPE":0,"NORAD_CAT_ID":48069,"ELEMENT_SET_NO":999,"REV_AT_EPOCH":25624,"BSTAR":0.00041921316,"MEAN_MOTION_DOT":0.00000166,"MEAN_MOTION_DDOT":0},{"OBJECT_NAME":"ONEWEB-0171","OBJECT_ID":"2021-025AE","EPOCH":"2026-07-05T21:50:51.386208","CLASSIFICATION_TYPE":"U","MEAN_MOTION":13.13468338,"ECCENTRICITY":0.00018875,"INCLINATION":87.8972,"RA_OF_ASC_NODE":316.5032,"ARG_OF_PERICENTER":102.216,"MEAN_ANOMALY":257.9181,"EPHEMERIS_TYPE":0,"NORAD_CAT_ID":48070,"ELEMENT_SET_NO":999,"REV_AT_EPOCH":25607,"BSTAR":-0.00024427703,"MEAN_MOTION_DOT":-7.6e-7,"MEAN_MOTION_DDOT":0},{"OBJECT_NAME":"ONEWEB-0172","OBJECT_ID":"2021-025AF","EPOCH":"2026-07-05T21:21:36.965088","CLASSIFICATION_TYPE":"U","MEAN_MOTION":13.13469765,"ECCENTRICITY":0.00020173,"INCLINATION":87.898,"RA_OF_ASC_NODE":316.4982,"ARG_OF_PERICENTER":103.9945,"MEAN_ANOMALY":256.1408,"EPHEMERIS_TYPE":0,"NORAD_CAT_ID":48071,"ELEMENT_SET_NO":999,"REV_AT_EPOCH":25696,"BSTAR":0.0008992302,"MEAN_MOTION_DOT":0.00000341,"MEAN_MOTION_DDOT":0},{"OBJECT_NAME":"ONEWEB-0174","OBJECT_ID":"2021-025AG","EPOCH":"2026-07-05T20:54:47.903328","CLASSIFICATION_TYPE":"U","MEAN_MOTION":13.13469627,"ECCENTRICITY":0.00019923,"INCLINATION":87.898,"RA_OF_ASC_NODE":316.5009,"ARG_OF_PERICENTER":95.5277,"MEAN_ANOMALY":264.608,"EPHEMERIS_TYPE":0,"NORAD_CAT_ID":48072,"ELEMENT_SET_NO":999,"REV_AT_EPOCH":25628,"BSTAR":0.0004215059,"MEAN_MOTION_DOT":0.00000167,"MEAN_MOTION_DDOT":0},{"OBJECT_NAME":"ONEWEB-0175","OBJECT_ID":"2021-025AH","EPOCH":"2026-07-05T19:48:58.622400","CLASSIFICATION_TYPE":"U","MEAN_MOTION":13.13468898,"ECCENTRICITY":0.00018715,"INCLINATION":87.8984,"RA_OF_ASC_NODE":316.4953,"ARG_OF_PERICENTER":109.7975,"MEAN_ANOMALY":250.3356,"EPHEMERIS_TYPE":0,"NORAD_CAT_ID":48073,"ELEMENT_SET_NO":999,"REV_AT_EPOCH":25593,"BSTAR":0.00040412795,"MEAN_MOTION_DOT":0.0000016,"MEAN_MOTION_DDOT":0},{"OBJECT_NAME":"ONEWEB-0177","OBJECT_ID":"2021-025AJ","EPOCH":"2026-07-05T21:55:44.289984","CLASSIFICATION_TYPE":"U","MEAN_MOTION":13.13468726,"ECCENTRICITY":0.00021089,"INCLINATION":87.898,"RA_OF_ASC_NODE":316.4957,"ARG_OF_PERICENTER":96.5998,"MEAN_ANOMALY":263.5371,"EPHEMERIS_TYPE":0,"NORAD_CAT_ID":48074,"ELEMENT_SET_NO":999,"REV_AT_EPOCH":25613,"BSTAR":-0.00044530024,"MEAN_MOTION_DOT":-0.0000015,"MEAN_MOTION_DDOT":0},{"OBJECT_NAME":"ONEWEB-0178","OBJECT_ID":"2021-025AK","EPOCH":"2026-07-05T20:33:03.716064","CLASSIFICATION_TYPE":"U","MEAN_MOTION":13.134704,"ECCENTRICITY":0.00020478,"INCLINATION":87.8968,"RA_OF_ASC_NODE":316.5177,"ARG_OF_PERICENTER":106.0688,"MEAN_ANOMALY":254.0667,"EPHEMERIS_TYPE":0,"NORAD_CAT_ID":48075,"ELEMENT_SET_NO":999,"REV_AT_EPOCH":25617,"BSTAR":-0.00080392614,"MEAN_MOTION_DOT":-0.00000281,"MEAN_MOTION_DDOT":0},{"OBJECT_NAME":"ONEWEB-0108","OBJECT_ID":"2021-025AL","EPOCH":"2026-07-05T19:34:21.270144","CLASSIFICATION_TYPE":"U","MEAN_MOTION":13.13469262,"ECCENTRICITY":0.00017655,"INCLINATION":87.8983,"RA_OF_ASC_NODE":316.5073,"ARG_OF_PERICENTER":94.2574,"MEAN_ANOMALY":265.8757,"EPHEMERIS_TYPE":0,"NORAD_CAT_ID":48076,"ELEMENT_SET_NO":999,"REV_AT_EPOCH":25609,"BSTAR":0.0008136445,"MEAN_MOTION_DOT":0.0000031,"MEAN_MOTION_DDOT":0},{"OBJECT_NAME":"ONEWEB-0169","OBJECT_ID":"2021-025AM","EPOCH":"2026-07-05T20:20:39.747264","CLASSIFICATION_TYPE":"U","MEAN_MOTION":13.13468958,"ECCENTRICITY":0.00019681,"INCLINATION":87.8974,"RA_OF_ASC_NODE":316.5076,"ARG_OF_PERICENTER":96.3988,"MEAN_ANOMALY":263.7365,"EPHEMERIS_TYPE":0,"NORAD_CAT_ID":48077,"ELEMENT_SET_NO":999,"REV_AT_EPOCH":25475,"BSTAR":-0.00074639226,"MEAN_MOTION_DOT":-0.0000026,"MEAN_MOTION_DDOT":0}]}
